{
  "type": "FeatureCollection",
  "features": [
    {
      "type": "Feature",
      "properties": {
        "norad_id": 34036,
        "name": "COSMOS 2251 DEB",
        "group": "cosmos-2251-debris",
        "lat": 70.96237044572456,
        "lon": -72.08752469628739,
        "alt_km": 579.2640696601256,
        "timestamp": "2025-12-05T09:41:19.525841+00:00",
        "meta_object_name": "COSMOS 2251 DEB",
        "meta_object_id": "1993-036HX",
        "meta_epoch": "2025-12-04T13:57:18.415296",
        "meta_mean_motion": 14.93967594,
        "meta_eccentricity": 0.0014479,
        "meta_inclination": 74.0193,
        "meta_ra_of_asc_node": 165.7197,
        "meta_arg_of_pericenter": 199.9535,
        "meta_mean_anomaly": 160.1085,
        "meta_ephemeris_type": 0,
        "meta_classification_type": "U",
        "meta_norad_cat_id": 34036,
        "meta_element_set_no": 999,
        "meta_rev_at_epoch": 88448,
        "meta_bstar": 0.0080934,
        "meta_mean_motion_dot": 0.00087457,
        "meta_mean_motion_ddot": 0,
        "tle_line1": "1 34036U 93036HX  25338.58146314  .00087457  00000+0  80934-2 0  9996",
        "tle_line2": "2 34036  74.0193 165.7197 0014479 199.9535 160.1085 14.93967594884484"
      },
      "geometry": {
        "type": "Point",
        "coordinates": [
          -72.08752469628739,
          70.96237044572456
        ]
      }
    },
    {
      "type": "Feature",
      "properties": {
        "norad_id": 34037,
        "name": "COSMOS 2251 DEB",
        "group": "cosmos-2251-debris",
        "lat": -56.82195331662686,
        "lon": 37.93692205303066,
        "alt_km": 820.385340700308,
        "timestamp": "2025-12-05T09:41:19.525852+00:00",
        "meta_object_name": "COSMOS 2251 DEB",
        "meta_object_id": "1993-036HY",
        "meta_epoch": "2025-12-04T15:33:47.992896",
        "meta_mean_motion": 14.34630353,
        "meta_eccentricity": 0.0052341,
        "meta_inclination": 74.053,
        "meta_ra_of_asc_node": 65.2508,
        "meta_arg_of_pericenter": 117.7132,
        "meta_mean_anomaly": 242.9344,
        "meta_ephemeris_type": 0,
        "meta_classification_type": "U",
        "meta_norad_cat_id": 34037,
        "meta_element_set_no": 999,
        "meta_rev_at_epoch": 87601,
        "meta_bstar": 0.0011424,
        "meta_mean_motion_dot": 3.256e-05,
        "meta_mean_motion_ddot": 0,
        "tle_line1": "1 34037U 93036HY  25338.64847214  .00003256  00000+0  11424-2 0  9994",
        "tle_line2": "2 34037  74.0530  65.2508 0052341 117.7132 242.9344 14.34630353876013"
      },
      "geometry": {
        "type": "Point",
        "coordinates": [
          37.93692205303066,
          -56.82195331662686
        ]
      }
    },
    {
      "type": "Feature",
      "properties": {
        "norad_id": 34040,
        "name": "COSMOS 2251 DEB",
        "group": "cosmos-2251-debris",
        "lat": 36.14216607629995,
        "lon": -114.14705722665558,
        "alt_km": 1077.843038525587,
        "timestamp": "2025-12-05T09:41:19.525862+00:00",
        "meta_object_name": "COSMOS 2251 DEB",
        "meta_object_id": "1993-036JB",
        "meta_epoch": "2025-12-04T13:43:31.314144",
        "meta_mean_motion": 13.68362184,
        "meta_eccentricity": 0.0342838,
        "meta_inclination": 73.9556,
        "meta_ra_of_asc_node": 79.3587,
        "meta_arg_of_pericenter": 34.4254,
        "meta_mean_anomaly": 327.8558,
        "meta_ephemeris_type": 0,
        "meta_classification_type": "U",
        "meta_norad_cat_id": 34040,
        "meta_element_set_no": 999,
        "meta_rev_at_epoch": 83488,
        "meta_bstar": 0.0005846,
        "meta_mean_motion_dot": 7.32e-06,
        "meta_mean_motion_ddot": 0,
        "tle_line1": "1 34040U 93036JB  25338.57189021  .00000732  00000+0  58460-3 0  9993",
        "tle_line2": "2 34040  73.9556  79.3587 0342838  34.4254 327.8558 13.68362184834888"
      },
      "geometry": {
        "type": "Point",
        "coordinates": [
          -114.14705722665558,
          36.14216607629995
        ]
      }
    },
    {
      "type": "Feature",
      "properties": {
        "norad_id": 34045,
        "name": "COSMOS 2251 DEB",
        "group": "cosmos-2251-debris",
        "lat": -0.7026710492991135,
        "lon": -35.944877925874685,
        "alt_km": 769.3445018012908,
        "timestamp": "2025-12-05T09:41:19.525873+00:00",
        "meta_object_name": "COSMOS 2251 DEB",
        "meta_object_id": "1993-036JG",
        "meta_epoch": "2025-12-04T09:06:00.497952",
        "meta_mean_motion": 14.34061663,
        "meta_eccentricity": 0.0025371,
        "meta_inclination": 74.0386,
        "meta_ra_of_asc_node": 326.1301,
        "meta_arg_of_pericenter": 52.169,
        "meta_mean_anomaly": 60.3225,
        "meta_ephemeris_type": 0,
        "meta_classification_type": "U",
        "meta_norad_cat_id": 34045,
        "meta_element_set_no": 999,
        "meta_rev_at_epoch": 87913,
        "meta_bstar": 0.00018163,
        "meta_mean_motion_dot": 4.84e-06,
        "meta_mean_motion_ddot": 0,
        "tle_line1": "1 34045U 93036JG  25338.37917243  .00000484  00000+0  18163-3 0  9991",
        "tle_line2": "2 34045  74.0386 326.1301 0025371  52.1690  60.3225 14.34061663879133"
      },
      "geometry": {
        "type": "Point",
        "coordinates": [
          -35.944877925874685,
          -0.7026710492991135
        ]
      }
    },
    {
      "type": "Feature",
      "properties": {
        "norad_id": 34046,
        "name": "COSMOS 2251 DEB",
        "group": "cosmos-2251-debris",
        "lat": 20.478921628865983,
        "lon": 30.30632182947568,
        "alt_km": 735.1935221384365,
        "timestamp": "2025-12-05T09:41:19.525883+00:00",
        "meta_object_name": "COSMOS 2251 DEB",
        "meta_object_id": "1993-036JH",
        "meta_epoch": "2025-12-04T14:14:43.774944",
        "meta_mean_motion": 14.46370037,
        "meta_eccentricity": 0.0074815,
        "meta_inclination": 74.04,
        "meta_ra_of_asc_node": 25.6826,
        "meta_arg_of_pericenter": 111.5269,
        "meta_mean_anomaly": 14.1413,
        "meta_ephemeris_type": 0,
        "meta_classification_type": "U",
        "meta_norad_cat_id": 34046,
        "meta_element_set_no": 999,
        "meta_rev_at_epoch": 87708,
        "meta_bstar": 0.0026345,
        "meta_mean_motion_dot": 9.779e-05,
        "meta_mean_motion_ddot": 0,
        "tle_line1": "1 34046U 93036JH  25338.59356221  .00009779  00000+0  26345-2 0  9995",
        "tle_line2": "2 34046  74.0400  25.6826 0074815 111.5269  14.1413 14.46370037877082"
      },
      "geometry": {
        "type": "Point",
        "coordinates": [
          30.30632182947568,
          20.478921628865983
        ]
      }
    },
    {
      "type": "Feature",
      "properties": {
        "norad_id": 34050,
        "name": "COSMOS 2251 DEB",
        "group": "cosmos-2251-debris",
        "lat": 31.96989327436095,
        "lon": -167.6186101148029,
        "alt_km": 818.8316578018412,
        "timestamp": "2025-12-05T09:41:19.525893+00:00",
        "meta_object_name": "COSMOS 2251 DEB",
        "meta_object_id": "1993-036JM",
        "meta_epoch": "2025-12-04T12:55:23.292192",
        "meta_mean_motion": 13.96160623,
        "meta_eccentricity": 0.0214641,
        "meta_inclination": 74.0887,
        "meta_ra_of_asc_node": 24.1202,
        "meta_arg_of_pericenter": 90.5374,
        "meta_mean_anomaly": 26.7719,
        "meta_ephemeris_type": 0,
        "meta_classification_type": "U",
        "meta_norad_cat_id": 34050,
        "meta_element_set_no": 999,
        "meta_rev_at_epoch": 85317,
        "meta_bstar": 0.00093406,
        "meta_mean_motion_dot": 1.536e-05,
        "meta_mean_motion_ddot": 0,
        "tle_line1": "1 34050U 93036JM  25338.53846403  .00001536  00000+0  93406-3 0  9996",
        "tle_line2": "2 34050  74.0887  24.1202 0214641  90.5374  26.7719 13.96160623853178"
      },
      "geometry": {
        "type": "Point",
        "coordinates": [
          -167.6186101148029,
          31.96989327436095
        ]
      }
    },
    {
      "type": "Feature",
      "properties": {
        "norad_id": 34053,
        "name": "COSMOS 2251 DEB",
        "group": "cosmos-2251-debris",
        "lat": -73.39502817781671,
        "lon": 177.5811146765641,
        "alt_km": 1276.083127071097,
        "timestamp": "2025-12-05T09:41:19.525904+00:00",
        "meta_object_name": "COSMOS 2251 DEB",
        "meta_object_id": "1993-036JQ",
        "meta_epoch": "2025-12-04T05:38:24.794016",
        "meta_mean_motion": 13.49140542,
        "meta_eccentricity": 0.0421723,
        "meta_inclination": 73.8444,
        "meta_ra_of_asc_node": 255.8749,
        "meta_arg_of_pericenter": 45.8516,
        "meta_mean_anomaly": 317.646,
        "meta_ephemeris_type": 0,
        "meta_classification_type": "U",
        "meta_norad_cat_id": 34053,
        "meta_element_set_no": 999,
        "meta_rev_at_epoch": 82569,
        "meta_bstar": 0.001402,
        "meta_mean_motion_dot": 1.505e-05,
        "meta_mean_motion_ddot": 0,
        "tle_line1": "1 34053U 93036JQ  25338.23500919  .00001505  00000+0  14020-2 0  9995",
        "tle_line2": "2 34053  73.8444 255.8749 0421723  45.8516 317.6460 13.49140542825695"
      },
      "geometry": {
        "type": "Point",
        "coordinates": [
          177.5811146765641,
          -73.39502817781671
        ]
      }
    }
  ]
}